{"type": "FeatureCollection", "features": [ {"type": "Feature", "properties": {"norad_id": 66495, "name": "STARLINK-35832", "group": "last-30-days", "lat": 16.113915311294495, "lon": 152.14055796370226, "alt_km": 412.9803182781843, "timestamp": "2025-12-11T05:00:25.074593+00:00", "meta": {"OBJECT_NAME": "STARLINK-35832", "OBJECT_ID": "2025-263L", "EPOCH": "2025-12-10T22:00:03.000096", "MEAN_MOTION": 15.5060976, "ECCENTRICITY": 0.00014676, "INCLINATION": 43.0006, "RA_OF_ASC_NODE": 135.788, "ARG_OF_PERICENTER": 266.4789, "MEAN_ANOMALY": 286.1133, "EPHEMERIS_TYPE": 0, "CLASSIFICATION_TYPE": "U", "NORAD_CAT_ID": 66495, "ELEMENT_SET_NO": 999, "REV_AT_EPOCH": 534, "BSTAR": -0.0015109995, "MEAN_MOTION_DOT": -0.00088091, "MEAN_MOTION_DDOT": 0}, "tle": {"line1": "1 66495U 25263L   25344.91670139 -.00088091  00000+0 -15110-2 0  9999", "line2": "2 66495  43.0006 135.7880 0001467 266.4789 286.1133 15.50609760  5342"}}, "geometry": {"type": "Point", "coordinates": [152.14055796370226, 16.113915311294495]}}, {"type": "Feature", "properties": {"norad_id": 66496, "name": "STARLINK-35909", "group": "last-30-days", "lat": 17.351238046796812, "lon": 153.66509333478953, "alt_km": 412.6824674836407, "timestamp": "2025-12-11T05:00:25.074603+00:00", "meta": {"OBJECT_NAME": "STARLINK-35909", "OBJECT_ID": "2025-263M", "EPOCH": "2025-12-10T22:00:03.000096", "MEAN_MOTION": 15.50613893, "ECCENTRICITY": 0.00013832, "INCLINATION": 43.0006, "RA_OF_ASC_NODE": 135.7828, "ARG_OF_PERICENTER": 273.7277, "MEAN_ANOMALY": 280.779, "EPHEMERIS_TYPE": 0, "CLASSIFICATION_TYPE": "U", "NORAD_CAT_ID": 66496, "ELEMENT_SET_NO": 999, "REV_AT_EPOCH": 534, "BSTAR": -0.0016438914, "MEAN_MOTION_DOT": -0.00095729, "MEAN_MOTION_DDOT": 0}, "tle": {"line1": "1 66496U 25263M   25344.91670139 -.00095729  00000+0 -16439-2 0  9991", "line2": "2 66496  43.0006 135.7828 0001383 273.7277 280.7790 15.50613893  5346"}}, "geometry": {"type": "Point", "coordinates": [153.66509333478953, 17.351238046796812]}}, {"type": "Feature", "properties": {"norad_id": 66497, "name": "STARLINK-35899", "group": "last-30-days", "lat": 18.574013331303902, "lon": 155.20716050870905, "alt_km": 412.52534588552135, "timestamp": "2025-12-11T05:00:25.074615+00:00", "meta": {"OBJECT_NAME": "STARLINK-35899", "OBJECT_ID": "2025-263N", "EPOCH": "2025-12-10T22:00:03.000096", "MEAN_MOTION": 15.50602858, "ECCENTRICITY": 0.00015416, "INCLINATION": 43.0005, "RA_OF_ASC_NODE": 135.7779, "ARG_OF_PERICENTER": 274.7911, "MEAN_ANOMALY": 281.6289, "EPHEMERIS_TYPE": 0, "CLASSIFICATION_TYPE": "U", "NORAD_CAT_ID": 66497, "ELEMENT_SET_NO": 999, "REV_AT_EPOCH": 534, "BSTAR": -0.001166221, "MEAN_MOTION_DOT": -0.00068223, "MEAN_MOTION_DDOT": 0}, "tle": {"line1": "1 66497U 25263N   25344.91670139 -.00068223  00000+0 -11662-2 0  9994", "line2": "2 66497  43.0005 135.7779 0001541 274.7911 281.6289 15.50602858  5345"}}, "geometry": {"type": "Point", "coordinates": [155.20716050870905, 18.574013331303902]}}, {"type": "Feature", "properties": {"norad_id": 66498, "name": "STARLINK-35907", "group": "last-30-days", "lat": -1.2376634367973876, "lon": 132.81380026248206, "alt_km": 441.2217420398265, "timestamp": "2025-12-11T05:00:25.074625+00:00", "meta": {"OBJECT_NAME": "STARLINK-35907", "OBJECT_ID": "2025-263P", "EPOCH": "2025-12-10T22:00:03.000096", "MEAN_MOTION": 15.43186276, "ECCENTRICITY": 7.753e-05, "INCLINATION": 43.0006, "RA_OF_ASC_NODE": 135.8293, "ARG_OF_PERICENTER": 253.7402, "MEAN_ANOMALY": 281.6011, "EPHEMERIS_TYPE": 0, "CLASSIFICATION_TYPE": "U", "NORAD_CAT_ID": 66498, "ELEMENT_SET_NO": 999, "REV_AT_EPOCH": 534, "BSTAR": -0.057057133, "MEAN_MOTION_DOT": -0.02312936, "MEAN_MOTION_DDOT": 0}, "tle": {"line1": "1 66498U 25263P   25344.91670139 -.02312936  00000+0 -57057-1 0  9997", "line2": "2 66498  43.0006 135.8293 0000775 253.7402 281.6011 15.43186276  5345"}}, "geometry": {"type": "Point", "coordinates": [132.81380026248206, -1.2376634367973876]}}, {"type": "Feature", "properties": {"norad_id": 66499, "name": "STARLINK-35816", "group": "last-30-days", "lat": 16.706386994478695, "lon": 152.8662976559439, "alt_km": 426.2612281429638, "timestamp": "2025-12-11T05:00:25.074635+00:00", "meta": {"OBJECT_NAME": "STARLINK-35816", "OBJECT_ID": "2025-263Q", "EPOCH": "2025-12-10T22:00:03.000096", "MEAN_MOTION": 15.47227205, "ECCENTRICITY": 0.00012941, "INCLINATION": 43.0003, "RA_OF_ASC_NODE": 135.775, "ARG_OF_PERICENTER": 277.4972, "MEAN_ANOMALY": 280.23, "EPHEMERIS_TYPE": 0, "CLASSIFICATION_TYPE": "U", "NORAD_CAT_ID": 66499, "ELEMENT_SET_NO": 999, "REV_AT_EPOCH": 534, "BSTAR": -0.04356656, "MEAN_MOTION_DOT": -0.02024056, "MEAN_MOTION_DDOT": 0}, "tle": {"line1": "1 66499U 25263Q   25344.91670139 -.02024056  00000+0 -43567-1 0  9992", "line2": "2 66499  43.0003 135.7750 0001294 277.4972 280.2300 15.47227205  5340"}}, "geometry": {"type": "Point", "coordinates": [152.8662976559439, 16.706386994478695]}}, {"type": "Feature", "properties": {"norad_id": 66500, "name": "STARLINK-35894", "group": "last-30-days", "lat": -21.054909568271672, "lon": 109.8152428000721, "alt_km": 434.97922550427666, "timestamp": "2025-12-11T05:00:25.074645+00:00", "meta": {"OBJECT_NAME": "STARLINK-35894", "OBJECT_ID": "2025-263R", "EPOCH": "2025-12-10T22:00:03.000096", "MEAN_MOTION": 15.45305052, "ECCENTRICITY": 0.00015017, "INCLINATION": 43.0005, "RA_OF_ASC_NODE": 135.9085, "ARG_OF_PERICENTER": 286.8794, "MEAN_ANOMALY": 216.0489, "EPHEMERIS_TYPE": 0, "CLASSIFICATION_TYPE": "U", "NORAD_CAT_ID": 66500, "ELEMENT_SET_NO": 999, "REV_AT_EPOCH": 534, "BSTAR": -0.040451713, "MEAN_MOTION_DOT": -0.01783198, "MEAN_MOTION_DDOT": 0}, "tle": {"line1": "1 66500U 25263R   25344.91670139 -.01783198  00000+0 -40452-1 0  9993", "line2": "2 66500  43.0005 135.9085 0001501 286.8794 216.0489 15.45305052  5345"}}, "geometry": {"type": "Point", "coordinates": [109.8152428000721, -21.054909568271672]}}, {"type": "Feature", "properties": {"norad_id": 66501, "name": "STARLINK-35897", "group": "last-30-days", "lat": 22.594187069926818, "lon": 160.57690101517335, "alt_km": 416.9400010058189, "timestamp": "2025-12-11T05:00:25.074658+00:00", "meta": {"OBJECT_NAME": "STARLINK-35897", "OBJECT_ID": "2025-263S", "EPOCH": "2025-12-10T22:00:03.000096", "MEAN_MOTION": 15.50121818, "ECCENTRICITY": 0.00013768, "INCLINATION": 43.0003, "RA_OF_ASC_NODE": 135.7581, "ARG_OF_PERICENTER": 278.3899, "MEAN_ANOMALY": 285.6294, "EPHEMERIS_TYPE": 0, "CLASSIFICATION_TYPE": "U", "NORAD_CAT_ID": 66501, "ELEMENT_SET_NO": 999, "REV_AT_EPOCH": 534, "BSTAR": -0.038644085, "MEAN_MOTION_DOT": -0.01993079, "MEAN_MOTION_DDOT": 0}, "tle": {"line1": "1 66501U 25263S   25344.91670139 -.01993079  00000+0 -38644-1 0  9995", "line2": "2 66501  43.0003 135.7581 0001376 278.3899 285.6294 15.50121818  5343"}}, "geometry": {"type": "Point", "coordinates": [160.57690101517335, 22.594187069926818]}}, {"type": "Feature", "properties": {"norad_id": 66502, "name": "STARLINK-35922", "group": "last-30-days", "lat": 26.73074611202232, "lon": 166.74916446920795, "alt_km": 411.37132284352356, "timestamp": "2025-12-11T05:00:25.074668+00:00", "meta": {"OBJECT_NAME": "STARLINK-35922", "OBJECT_ID": "2025-263T", "EPOCH": "2025-12-10T22:00:03.000096", "MEAN_MOTION": 15.5058522, "ECCENTRICITY": 0.00015132, "INCLINATION": 43.0004, "RA_OF_ASC_NODE": 135.7431, "ARG_OF_PERICENTER": 278.1981, "MEAN_ANOMALY": 291.6495, "EPHEMERIS_TYPE": 0, "CLASSIFICATION_TYPE": "U", "NORAD_CAT_ID": 66502, "ELEMENT_SET_NO": 999, "REV_AT_EPOCH": 534, "BSTAR": -0.00065746274, "MEAN_MOTION_DOT": -0.0003873, "MEAN_MOTION_DDOT": 0}, "tle": {"line1": "1 66502U 25263T   25344.91670139 -.00038730  00000+0 -65746-3 0  9994", "line2": "2 66502  43.0004 135.7431 0001513 278.1981 291.6495 15.50585220  5343"}}, "geometry": {"type": "Point", "coordinates": [166.74916446920795, 26.73074611202232]}}, {"type": "Feature", "properties": {"norad_id": 66503, "name": "STARLINK-35917", "group": "last-30-days", "lat": 28.88488237229207, "lon": 170.3273760355746, "alt_km": 411.1195739753366, "timestamp": "2025-12-11T05:00:25.074678+00:00", "meta": {"OBJECT_NAME": "STARLINK-35917", "OBJECT_ID": "2025-263U", "EPOCH": "2025-12-10T22:00:03.000096", "MEAN_MOTION": 15.50555472, "ECCENTRICITY": 0.00016652, "INCLINATION": 43.0004, "RA_OF_ASC_NODE": 135.7344, "ARG_OF_PERICENTER": 275.845, "MEAN_ANOMALY": 297.8392, "EPHEMERIS_TYPE": 0, "CLASSIFICATION_TYPE": "U", "NORAD_CAT_ID": 66503, "ELEMENT_SET_NO": 999, "REV_AT_EPOCH": 534, "BSTAR": 0.00073831437, "MEAN_MOTION_DOT": 0.00043175, "MEAN_MOTION_DDOT": 0}, "tle": {"line1": "1 66503U 25263U   25344.91670139  .00043175  00000+0  73831-3 0  9996", "line2": "2 66503  43.0004 135.7344 0001665 275.8450 297.8392 15.50555472  5340"}}, "geometry": {"type": "Point", "coordinates": [170.3273760355746, 28.88488237229207]}}, {"type": "Feature", "properties": {"norad_id": 66504, "name": "STARLINK-35916", "group": "last-30-days", "lat": -1.2183838711577724, "lon": -43.23744966179841, "alt_km": 443.898353186898, "timestamp": "2025-12-11T05:00:25.074688+00:00", "meta": {"OBJECT_NAME": "STARLINK-35916", "OBJECT_ID": "2025-263V", "EPOCH": "2025-12-10T20:26:33.442944", "MEAN_MOTION": 15.40704889, "ECCENTRICITY": 0.00014959, "INCLINATION": 43, "RA_OF_ASC_NODE": 137.5117, "ARG_OF_PERICENTER": 273.5893, "MEAN_ANOMALY": 86.4792, "EPHEMERIS_TYPE": 0, "CLASSIFICATION_TYPE": "U", "NORAD_CAT_ID": 66504, "ELEMENT_SET_NO": 999, "REV_AT_EPOCH": 525, "BSTAR": 0.0015358905, "MEAN_MOTION_DOT": 0.00064408, "MEAN_MOTION_DDOT": 0}, "tle": {"line1": "1 66504U 25263V   25344.85177596  .00064408  00000+0  15359-2 0  9991", "line2": "2 66504  43.0000 137.5117 0001495 273.5893  86.4792 15.40704889  5255"}}, "geometry": {"type": "Point", "coordinates": [-43.23744966179841, -1.2183838711577724]}}]}